[
  {
    "OBJECT_NAME": "STARLINK-11157 [DTC]",
    "OBJECT_ID": "24118K",
    "EPOCH": "2025-11-10T08:36:20.578464",
    "MEAN_MOTION": 15.69696954,
    "ECCENTRICITY": 0.0001644,
    "INCLINATION": 53.1586,
    "RA_OF_ASC_NODE": 89.3276,
    "ARG_OF_PERICENTER": 49.312,
    "MEAN_ANOMALY": 310.804,
    "EPHEMERIS_TYPE": 0,
    "CLASSIFICATION_TYPE": "U",
    "NORAD_CAT_ID": 60122,
    "ELEMENT_SET_NO": 999,
    "REV_AT_EPOCH": 7925,
    "BSTAR": 5.5304e-05,
    "MEAN_MOTION_DOT": 6.112e-05,
    "MEAN_MOTION_DDOT": 0.0,
    "TLE_LINE1": "1 60122U 24118K   25314.35857151  .00006112  00000+0  55304-4 0  9997",
    "TLE_LINE2": "2 60122  53.1586  89.3276 0001644  49.3120 310.8040 15.69696954 79259",
    "COMMENT": "Grouped by shell and plane from TLE"
  },
  {
    "OBJECT_NAME": "STARLINK-11162 [DTC]",
    "OBJECT_ID": "24118L",
    "EPOCH": "2025-11-10T16:00:38.439648",
    "MEAN_MOTION": 15.69747178,
    "ECCENTRICITY": 0.0001503,
    "INCLINATION": 53.1608,
    "RA_OF_ASC_NODE": 87.6929,
    "ARG_OF_PERICENTER": 82.3217,
    "MEAN_ANOMALY": 277.7972,
    "EPHEMERIS_TYPE": 0,
    "CLASSIFICATION_TYPE": "U",
    "NORAD_CAT_ID": 60123,
    "ELEMENT_SET_NO": 999,
    "REV_AT_EPOCH": 7930,
    "BSTAR": 0.0,
    "MEAN_MOTION_DOT": -6.331e-05,
    "MEAN_MOTION_DDOT": 0.0,
    "TLE_LINE1": "1 60123U 24118L   25314.66711157 -.00006331  00000+0 -47355-4 0  9999",
    "TLE_LINE2": "2 60123  53.1608  87.6929 0001503  82.3217 277.7972 15.69747178 79305",
    "COMMENT": "Grouped by shell and plane from TLE"
  },
  {
    "OBJECT_NAME": "STARLINK-11161 [DTC]",
    "OBJECT_ID": "24118M",
    "EPOCH": "2025-11-10T18:57:05.538816",
    "MEAN_MOTION": 15.69725579,
    "ECCENTRICITY": 0.0001381,
    "INCLINATION": 53.1575,
    "RA_OF_ASC_NODE": 87.7674,
    "ARG_OF_PERICENTER": 39.6941,
    "MEAN_ANOMALY": 320.4177,
    "EPHEMERIS_TYPE": 0,
    "CLASSIFICATION_TYPE": "U",
    "NORAD_CAT_ID": 60124,
    "ELEMENT_SET_NO": 999,
    "REV_AT_EPOCH": 7931,
    "BSTAR": 0.0,
    "MEAN_MOTION_DOT": -2.923e-05,
    "MEAN_MOTION_DDOT": 0.0,
    "TLE_LINE1": "1 60124U 24118M   25314.78964744 -.00002923  00000+0 -19258-4 0  9999",
    "TLE_LINE2": "2 60124  53.1575  87.7674 0001381  39.6941 320.4177 15.69725579 79315",
    "COMMENT": "Grouped by shell and plane from TLE"
  },
  {
    "OBJECT_NAME": "STARLINK-11160 [DTC]",
    "OBJECT_ID": "24118N",
    "EPOCH": "2025-11-10T10:15:05.612256",
    "MEAN_MOTION": 15.69717197,
    "ECCENTRICITY": 0.0001052,
    "INCLINATION": 53.158,
    "RA_OF_ASC_NODE": 89.0445,
    "ARG_OF_PERICENTER": 94.1291,
    "MEAN_ANOMALY": 265.9848,
    "EPHEMERIS_TYPE": 0,
    "CLASSIFICATION_TYPE": "U",
    "NORAD_CAT_ID": 60125,
    "ELEMENT_SET_NO": 999,
    "REV_AT_EPOCH": 7926,
    "BSTAR": 1.4716000000000003e-05,
    "MEAN_MOTION_DOT": 1.195e-05,
    "MEAN_MOTION_DDOT": 0.0,
    "TLE_LINE1": "1 60125U 24118N   25314.42714829  .00001195  00000+0  14716-4 0  9990",
    "TLE_LINE2": "2 60125  53.1580  89.0445 0001052  94.1291 265.9848 15.69717197 79261",
    "COMMENT": "Grouped by shell and plane from TLE"
  },
  {
    "OBJECT_NAME": "STARLINK-11746 [DTC]",
    "OBJECT_ID": "25127C",
    "EPOCH": "2025-11-10T17:19:51.855744",
    "MEAN_MOTION": 15.70924235,
    "ECCENTRICITY": 0.0003004,
    "INCLINATION": 43.0023,
    "RA_OF_ASC_NODE": 81.4779,
    "ARG_OF_PERICENTER": 275.4112,
    "MEAN_ANOMALY": 84.6413,
    "EPHEMERIS_TYPE": 0,
    "CLASSIFICATION_TYPE": "U",
    "NORAD_CAT_ID": 64372,
    "ELEMENT_SET_NO": 999,
    "REV_AT_EPOCH": 2479,
    "BSTAR": 0.0020571,
    "MEAN_MOTION_DOT": 0.0027335,
    "MEAN_MOTION_DDOT": 0.0,
    "TLE_LINE1": "1 64372U 25127C   25314.72212796  .00273350  00000+0  20571-2 0  9996",
    "TLE_LINE2": "2 64372  43.0023  81.4779 0003004 275.4112  84.6413 15.70924235 24797",
    "COMMENT": "Grouped by shell and plane from TLE"
  },
  {
    "OBJECT_NAME": "STARLINK-11748 [DTC]",
    "OBJECT_ID": "25127D",
    "EPOCH": "2025-11-10T19:53:54.015360",
    "MEAN_MOTION": 15.70918601,
    "ECCENTRICITY": 0.0002495,
    "INCLINATION": 43.0002,
    "RA_OF_ASC_NODE": 81.4426,
    "ARG_OF_PERICENTER": 278.7363,
    "MEAN_ANOMALY": 81.3222,
    "EPHEMERIS_TYPE": 0,
    "CLASSIFICATION_TYPE": "U",
    "NORAD_CAT_ID": 64373,
    "ELEMENT_SET_NO": 999,
    "REV_AT_EPOCH": 2480,
    "BSTAR": 0.0023817,
    "MEAN_MOTION_DOT": 0.003182,
    "MEAN_MOTION_DDOT": 0.0,
    "TLE_LINE1": "1 64373U 25127D   25314.82909740  .00318200  00000+0  23817-2 0  9990",
    "TLE_LINE2": "2 64373  43.0002  81.4426 0002495 278.7363  81.3222 15.70918601 24805",
    "COMMENT": "Grouped by shell and plane from TLE"
  },
  {
    "OBJECT_NAME": "STARLINK-11739 [DTC]",
    "OBJECT_ID": "25127E",
    "EPOCH": "2025-11-10T18:28:28.634304",
    "MEAN_MOTION": 15.70891315,
    "ECCENTRICITY": 0.0002285,
    "INCLINATION": 42.9995,
    "RA_OF_ASC_NODE": 80.966,
    "ARG_OF_PERICENTER": 250.4748,
    "MEAN_ANOMALY": 109.5873,
    "EPHEMERIS_TYPE": 0,
    "CLASSIFICATION_TYPE": "U",
    "NORAD_CAT_ID": 64374,
    "ELEMENT_SET_NO": 999,
    "REV_AT_EPOCH": 2480,
    "BSTAR": 0.0014571,
    "MEAN_MOTION_DOT": 0.00191295,
    "MEAN_MOTION_DDOT": 0.0,
    "TLE_LINE1": "1 64374U 25127E   25314.76977586  .00191295  00000+0  14571-2 0  9997",
    "TLE_LINE2": "2 64374  42.9995  80.9660 0002285 250.4748 109.5873 15.70891315 24807",
    "COMMENT": "Grouped by shell and plane from TLE"
  },
  {
    "OBJECT_NAME": "STARLINK-11738 [DTC]",
    "OBJECT_ID": "25127F",
    "EPOCH": "2025-11-10T18:21:02.156256",
    "MEAN_MOTION": 15.70917159,
    "ECCENTRICITY": 0.0001044,
    "INCLINATION": 43.0005,
    "RA_OF_ASC_NODE": 81.8174,
    "ARG_OF_PERICENTER": 242.5381,
    "MEAN_ANOMALY": 117.5381,
    "EPHEMERIS_TYPE": 0,
    "CLASSIFICATION_TYPE": "U",
    "NORAD_CAT_ID": 64375,
    "ELEMENT_SET_NO": 999,
    "REV_AT_EPOCH": 2479,
    "BSTAR": 0.0019978,
    "MEAN_MOTION_DOT": 0.00265104,
    "MEAN_MOTION_DDOT": 0.0,
    "TLE_LINE1": "1 64375U 25127F   25314.76460829  .00265104  00000+0  19978-2 0  9992",
    "TLE_LINE2": "2 64375  43.0005  81.8174 0001044 242.5381 117.5381 15.70917159 24795",
    "COMMENT": "Grouped by shell and plane from TLE"
  },
  {
    "OBJECT_NAME": "STARLINK-11711 [DTC]",
    "OBJECT_ID": "25127J",
    "EPOCH": "2025-11-10T17:12:13.528800",
    "MEAN_MOTION": 15.7090657,
    "ECCENTRICITY": 0.0001756,
    "INCLINATION": 42.9992,
    "RA_OF_ASC_NODE": 81.4327,
    "ARG_OF_PERICENTER": 293.7889,
    "MEAN_ANOMALY": 66.2795,
    "EPHEMERIS_TYPE": 0,
    "CLASSIFICATION_TYPE": "U",
    "NORAD_CAT_ID": 64378,
    "ELEMENT_SET_NO": 999,
    "REV_AT_EPOCH": 2490,
    "BSTAR": 0.0016825000000000002,
    "MEAN_MOTION_DOT": 0.00221918,
    "MEAN_MOTION_DDOT": 0.0,
    "TLE_LINE1": "1 64378U 25127J   25314.71682325  .00221918  00000+0  16825-2 0  9990",
    "TLE_LINE2": "2 64378  42.9992  81.4327 0001756 293.7889  66.2795 15.70906570 24905",
    "COMMENT": "Grouped by shell and plane from TLE"
  },
  {
    "OBJECT_NAME": "STARLINK-11692 [DTC]",
    "OBJECT_ID": "25127M",
    "EPOCH": "2025-11-10T17:27:30.540384",
    "MEAN_MOTION": 15.70931483,
    "ECCENTRICITY": 0.0002632,
    "INCLINATION": 42.9995,
    "RA_OF_ASC_NODE": 81.5175,
    "ARG_OF_PERICENTER": 274.8934,
    "MEAN_ANOMALY": 85.1633,
    "EPHEMERIS_TYPE": 0,
    "CLASSIFICATION_TYPE": "U",
    "NORAD_CAT_ID": 64381,
    "ELEMENT_SET_NO": 999,
    "REV_AT_EPOCH": 2490,
    "BSTAR": 0.0018262999999999999,
    "MEAN_MOTION_DOT": 0.00241774,
    "MEAN_MOTION_DDOT": 0.0,
    "TLE_LINE1": "1 64381U 25127M   25314.72743681  .00241774  00000+0  18263-2 0  9998",
    "TLE_LINE2": "2 64381  42.9995  81.5175 0002632 274.8934  85.1633 15.70931483 24901",
    "COMMENT": "Grouped by shell and plane from TLE"
  },
  {
    "OBJECT_NAME": "STARLINK-11740 [DTC]",
    "OBJECT_ID": "25127N",
    "EPOCH": "2025-11-10T17:04:34.246272",
    "MEAN_MOTION": 15.70946208,
    "ECCENTRICITY": 0.0002728,
    "INCLINATION": 43.0006,
    "RA_OF_ASC_NODE": 81.3886,
    "ARG_OF_PERICENTER": 276.4132,
    "MEAN_ANOMALY": 83.6425,
    "EPHEMERIS_TYPE": 0,
    "CLASSIFICATION_TYPE": "U",
    "NORAD_CAT_ID": 64382,
    "ELEMENT_SET_NO": 999,
    "REV_AT_EPOCH": 2479,
    "BSTAR": 0.0018523,
    "MEAN_MOTION_DOT": 0.00245488,
    "MEAN_MOTION_DDOT": 0.0,
    "TLE_LINE1": "1 64382U 25127N   25314.71150748  .00245488  00000+0  18523-2 0  9999",
    "TLE_LINE2": "2 64382  43.0006  81.3886 0002728 276.4132  83.6425 15.70946208 24798",
    "COMMENT": "Grouped by shell and plane from TLE"
  }
]